[{"OBJECT_NAME":"ONEWEB-0123","OBJECT_ID":"2020-100M","EPOCH":"2026-01-16T06:23:13.365024","MEAN_MOTION":13.12442261,"ECCENTRICITY":0.00018956,"INCLINATION":87.8919,"RA_OF_ASC_NODE":20.843,"ARG_OF_PERICENTER":90.8628,"MEAN_ANOMALY":269.2718,"EPHEMERIS_TYPE":0,"CLASSIFICATION_TYPE":"U","NORAD_CAT_ID":47269,"ELEMENT_SET_NO":999,"REV_AT_EPOCH":24476,"BSTAR":-0.0015630696,"MEAN_MOTION_DOT":-5.5e-6,"MEAN_MOTION_DDOT":0},{"OBJECT_NAME":"ONEWEB-0124","OBJECT_ID":"2020-100N","EPOCH":"2026-01-16T06:08:35.370816","MEAN_MOTION":13.12443756,"ECCENTRICITY":0.00018457,"INCLINATION":87.8918,"RA_OF_ASC_NODE":20.8497,"ARG_OF_PERICENTER":84.5743,"MEAN_ANOMALY":275.5596,"EPHEMERIS_TYPE":0,"CLASSIFICATION_TYPE":"U","NORAD_CAT_ID":47270,"ELEMENT_SET_NO":999,"REV_AT_EPOCH":24464,"BSTAR":-0.00099474815,"MEAN_MOTION_DOT":-3.45e-6,"MEAN_MOTION_DDOT":0},{"OBJECT_NAME":"ONEWEB-0125","OBJECT_ID":"2020-100P","EPOCH":"2026-01-16T05:36:53.190144","MEAN_MOTION":13.12444436,"ECCENTRICITY":0.00020364,"INCLINATION":87.8928,"RA_OF_ASC_NODE":20.8202,"ARG_OF_PERICENTER":87.0072,"MEAN_ANOMALY":273.1289,"EPHEMERIS_TYPE":0,"CLASSIFICATION_TYPE":"U","NORAD_CAT_ID":47271,"ELEMENT_SET_NO":999,"REV_AT_EPOCH":24470,"BSTAR":0.0010946172,"MEAN_MOTION_DOT":4.07e-6,"MEAN_MOTION_DDOT":0},{"OBJECT_NAME":"ONEWEB-0126","OBJECT_ID":"2020-100Q","EPOCH":"2026-01-16T06:06:22.656960","MEAN_MOTION":13.12441526,"ECCENTRICITY":0.00017276,"INCLINATION":87.8928,"RA_OF_ASC_NODE":20.839,"ARG_OF_PERICENTER":93.8882,"MEAN_ANOMALY":266.2444,"EPHEMERIS_TYPE":0,"CLASSIFICATION_TYPE":"U","NORAD_CAT_ID":47272,"ELEMENT_SET_NO":999,"REV_AT_EPOCH":24477,"BSTAR":-0.00076431781,"MEAN_MOTION_DOT":-2.62e-6,"MEAN_MOTION_DDOT":0},{"OBJECT_NAME":"ONEWEB-0127","OBJECT_ID":"2020-100R","EPOCH":"2026-01-16T07:07:10.467552","MEAN_MOTION":13.12442466,"ECCENTRICITY":0.00016512,"INCLINATION":87.8921,"RA_OF_ASC_NODE":20.8391,"ARG_OF_PERICENTER":92.9445,"MEAN_ANOMALY":267.1873,"EPHEMERIS_TYPE":0,"CLASSIFICATION_TYPE":"U","NORAD_CAT_ID":47273,"ELEMENT_SET_NO":999,"REV_AT_EPOCH":24480,"BSTAR":0.0010378565,"MEAN_MOTION_DOT":3.86e-6,"MEAN_MOTION_DDOT":0},{"OBJECT_NAME":"ONEWEB-0128","OBJECT_ID":"2020-100S","EPOCH":"2026-01-16T05:49:05.323872","MEAN_MOTION":13.12441103,"ECCENTRICITY":0.00015283,"INCLINATION":87.8917,"RA_OF_ASC_NODE":20.865,"ARG_OF_PERICENTER":81.4,"MEAN_ANOMALY":278.7302,"EPHEMERIS_TYPE":0,"CLASSIFICATION_TYPE":"U","NORAD_CAT_ID":47274,"ELEMENT_SET_NO":999,"REV_AT_EPOCH":24481,"BSTAR":0.00022797026,"MEAN_MOTION_DOT":9.5e-7,"MEAN_MOTION_DDOT":0},{"OBJECT_NAME":"ONEWEB-0129","OBJECT_ID":"2020-100T","EPOCH":"2026-01-16T07:09:36.555264","MEAN_MOTION":13.12442725,"ECCENTRICITY":0.00015298,"INCLINATION":87.8929,"RA_OF_ASC_NODE":20.812,"ARG_OF_PERICENTER":130.2088,"MEAN_ANOMALY":229.9175,"EPHEMERIS_TYPE":0,"CLASSIFICATION_TYPE":"U","NORAD_CAT_ID":47275,"ELEMENT_SET_NO":999,"REV_AT_EPOCH":24475,"BSTAR":0.00097970324,"MEAN_MOTION_DOT":3.65e-6,"MEAN_MOTION_DDOT":0},{"OBJECT_NAME":"ONEWEB-0130","OBJECT_ID":"2020-100U","EPOCH":"2026-01-16T05:58:50.390112","MEAN_MOTION":13.12443511,"ECCENTRICITY":0.00016433,"INCLINATION":87.8928,"RA_OF_ASC_NODE":20.8159,"ARG_OF_PERICENTER":90.2526,"MEAN_ANOMALY":269.8791,"EPHEMERIS_TYPE":0,"CLASSIFICATION_TYPE":"U","NORAD_CAT_ID":47276,"ELEMENT_SET_NO":999,"REV_AT_EPOCH":24471,"BSTAR":-0.00024394511,"MEAN_MOTION_DOT":-7.5e-7,"MEAN_MOTION_DDOT":0},{"OBJECT_NAME":"ONEWEB-0131","OBJECT_ID":"2020-100V","EPOCH":"2026-01-16T05:53:58.764192","MEAN_MOTION":13.12441166,"ECCENTRICITY":0.00017205,"INCLINATION":87.8928,"RA_OF_ASC_NODE":20.847,"ARG_OF_PERICENTER":88.7718,"MEAN_ANOMALY":271.3607,"EPHEMERIS_TYPE":0,"CLASSIFICATION_TYPE":"U","NORAD_CAT_ID":47277,"ELEMENT_SET_NO":999,"REV_AT_EPOCH":24475,"BSTAR":0.00012007125,"MEAN_MOTION_DOT":5.6e-7,"MEAN_MOTION_DDOT":0},{"OBJECT_NAME":"ONEWEB-0132","OBJECT_ID":"2020-100W","EPOCH":"2026-01-16T06:35:24.480096","MEAN_MOTION":13.12441959,"ECCENTRICITY":0.00017249,"INCLINATION":87.8923,"RA_OF_ASC_NODE":20.8423,"ARG_OF_PERICENTER":86.1605,"MEAN_ANOMALY":273.9721,"EPHEMERIS_TYPE":0,"CLASSIFICATION_TYPE":"U","NORAD_CAT_ID":47278,"ELEMENT_SET_NO":999,"REV_AT_EPOCH":24465,"BSTAR":-0.00071927102,"MEAN_MOTION_DOT":-2.46e-6,"MEAN_MOTION_DDOT":0},{"OBJECT_NAME":"ONEWEB-0133","OBJECT_ID":"2020-100X","EPOCH":"2026-01-16T06:59:37.375584","MEAN_MOTION":13.1244503,"ECCENTRICITY":0.00016546,"INCLINATION":87.8922,"RA_OF_ASC_NODE":20.8004,"ARG_OF_PERICENTER":83.967,"MEAN_ANOMALY":276.1647,"EPHEMERIS_TYPE":0,"CLASSIFICATION_TYPE":"U","NORAD_CAT_ID":47279,"ELEMENT_SET_NO":999,"REV_AT_EPOCH":24481,"BSTAR":0.00078727144,"MEAN_MOTION_DOT":2.96e-6,"MEAN_MOTION_DDOT":0},{"OBJECT_NAME":"ONEWEB-0134","OBJECT_ID":"2020-100Y","EPOCH":"2026-01-16T06:15:55.386144","MEAN_MOTION":13.12443907,"ECCENTRICITY":0.00014825,"INCLINATION":87.8929,"RA_OF_ASC_NODE":20.8025,"ARG_OF_PERICENTER":89.2557,"MEAN_ANOMALY":270.8741,"EPHEMERIS_TYPE":0,"CLASSIFICATION_TYPE":"U","NORAD_CAT_ID":47280,"ELEMENT_SET_NO":999,"REV_AT_EPOCH":24478,"BSTAR":-0.0011507689,"MEAN_MOTION_DOT":-4.01e-6,"MEAN_MOTION_DDOT":0},{"OBJECT_NAME":"ONEWEB-0135","OBJECT_ID":"2020-100Z","EPOCH":"2026-01-16T07:24:14.986656","MEAN_MOTION":13.12442981,"ECCENTRICITY":0.00014398,"INCLINATION":87.8926,"RA_OF_ASC_NODE":20.8325,"ARG_OF_PERICENTER":84.1854,"MEAN_ANOMALY":275.9439,"EPHEMERIS_TYPE":0,"CLASSIFICATION_TYPE":"U","NORAD_CAT_ID":47281,"ELEMENT_SET_NO":999,"REV_AT_EPOCH":24481,"BSTAR":0.0013229456,"MEAN_MOTION_DOT":4.89e-6,"MEAN_MOTION_DDOT":0},{"OBJECT_NAME":"ONEWEB-0136","OBJECT_ID":"2020-100AA","EPOCH":"2026-01-16T06:01:17.671008","MEAN_MOTION":13.12441814,"ECCENTRICITY":0.00013412,"INCLINATION":87.8929,"RA_OF_ASC_NODE":20.8137,"ARG_OF_PERICENTER":92.0289,"MEAN_ANOMALY":268.0993,"EPHEMERIS_TYPE":0,"CLASSIFICATION_TYPE":"U","NORAD_CAT_ID":47282,"ELEMENT_SET_NO":999,"REV_AT_EPOCH":24473,"BSTAR":-0.0005234043,"MEAN_MOTION_DOT":-1.76e-6,"MEAN_MOTION_DDOT":0},{"OBJECT_NAME":"ONEWEB-0137","OBJECT_ID":"2020-100AB","EPOCH":"2026-01-16T01:20:42.900576","MEAN_MOTION":13.12444944,"ECCENTRICITY":0.00018804,"INCLINATION":87.8928,"RA_OF_ASC_NODE":20.8586,"ARG_OF_PERICENTER":89.0612,"MEAN_ANOMALY":271.0732,"EPHEMERIS_TYPE":0,"CLASSIFICATION_TYPE":"U","NORAD_CAT_ID":47283,"ELEMENT_SET_NO":999,"REV_AT_EPOCH":24461,"BSTAR":0.00039772557,"MEAN_MOTION_DOT":1.56e-6,"MEAN_MOTION_DDOT":0},{"OBJECT_NAME":"ONEWEB-0138","OBJECT_ID":"2020-100AC","EPOCH":"2026-01-16T06:18:20.889792","MEAN_MOTION":13.12443965,"ECCENTRICITY":0.00015547,"INCLINATION":87.8931,"RA_OF_ASC_NODE":20.8258,"ARG_OF_PERICENTER":91.4539,"MEAN_ANOMALY":268.6767,"EPHEMERIS_TYPE":0,"CLASSIFICATION_TYPE":"U","NORAD_CAT_ID":47284,"ELEMENT_SET_NO":999,"REV_AT_EPOCH":24472,"BSTAR":-0.0012281418,"MEAN_MOTION_DOT":-4.29e-6,"MEAN_MOTION_DDOT":0},{"OBJECT_NAME":"ONEWEB-0139","OBJECT_ID":"2020-100AD","EPOCH":"2026-01-16T01:47:46.442976","MEAN_MOTION":13.1244224,"ECCENTRICITY":0.00017398,"INCLINATION":87.8926,"RA_OF_ASC_NODE":20.8521,"ARG_OF_PERICENTER":90.5203,"MEAN_ANOMALY":269.6125,"EPHEMERIS_TYPE":0,"CLASSIFICATION_TYPE":"U","NORAD_CAT_ID":47285,"ELEMENT_SET_NO":999,"REV_AT_EPOCH":24477,"BSTAR":0.0013092457,"MEAN_MOTION_DOT":4.84e-6,"MEAN_MOTION_DDOT":0}]
