ONEWEB-0123             
1 47269U 20100M   26016.26612691 -.00000550  00000+0 -15631-2 0  9998
2 47269  87.8919  20.8430 0001895  90.8628 269.2718 13.12442261244769
ONEWEB-0124             
1 47270U 20100N   26016.25596494 -.00000345  00000+0 -99475-3 0  9992
2 47270  87.8918  20.8497 0001845  84.5743 275.5596 13.12443756244647
ONEWEB-0125             
1 47271U 20100P   26016.23394896  .00000407  00000+0  10946-2 0  9995
2 47271  87.8928  20.8202 0002036  87.0072 273.1289 13.12444436244705
ONEWEB-0126             
1 47272U 20100Q   26016.25442890 -.00000262  00000+0 -76432-3 0  9990
2 47272  87.8928  20.8390 0001727  93.8882 266.2444 13.12441526244774
ONEWEB-0127             
1 47273U 20100R   26016.29664893  .00000386  00000+0  10379-2 0  9996
2 47273  87.8921  20.8391 0001651  92.9445 267.1873 13.12442466244804
ONEWEB-0128             
1 47274U 20100S   26016.24242273  .00000095  00000+0  22797-3 0  9991
2 47274  87.8917  20.8650 0001528  81.4000 278.7302 13.12441103244814
ONEWEB-0129             
1 47275U 20100T   26016.29833976  .00000365  00000+0  97970-3 0  9998
2 47275  87.8929  20.8120 0001529 130.2088 229.9175 13.12442725244750
ONEWEB-0130             
1 47276U 20100U   26016.24919433 -.00000075  00000+0 -24395-3 0  9998
2 47276  87.8928  20.8159 0001643  90.2526 269.8791 13.12443511244718
ONEWEB-0131             
1 47277U 20100V   26016.24581903  .00000056  00000+0  12007-3 0  9990
2 47277  87.8928  20.8470 0001720  88.7718 271.3607 13.12441166244758
ONEWEB-0132             
1 47278U 20100W   26016.27458889 -.00000246  00000+0 -71927-3 0  9999
2 47278  87.8923  20.8423 0001724  86.1605 273.9721 13.12441959244657
ONEWEB-0133             
1 47279U 20100X   26016.29140481  .00000296  00000+0  78727-3 0  9996
2 47279  87.8922  20.8004 0001654  83.9670 276.1647 13.12445030244815
ONEWEB-0134             
1 47280U 20100Y   26016.26105771 -.00000401  00000+0 -11508-2 0  9991
2 47280  87.8929  20.8025 0001482  89.2557 270.8741 13.12443907244782
ONEWEB-0135             
1 47281U 20100Z   26016.30850679  .00000489  00000+0  13229-2 0  9997
2 47281  87.8926  20.8325 0001439  84.1854 275.9439 13.12442981244814
ONEWEB-0136             
1 47282U 20100AA  26016.25089897 -.00000176  00000+0 -52340-3 0  9991
2 47282  87.8929  20.8137 0001341  92.0289 268.0993 13.12441814244734
ONEWEB-0137             
1 47283U 20100AB  26016.05605209  .00000156  00000+0  39773-3 0  9992
2 47283  87.8928  20.8586 0001880  89.0612 271.0732 13.12444944244615
ONEWEB-0138             
1 47284U 20100AC  26016.26274178 -.00000429  00000+0 -12281-2 0  9992
2 47284  87.8931  20.8258 0001554  91.4539 268.6767 13.12443965244723
ONEWEB-0139             
1 47285U 20100AD  26016.07484309  .00000484  00000+0  13092-2 0  9991
2 47285  87.8926  20.8521 0001739  90.5203 269.6125 13.12442240244773
